IRIDIUM 126             
1 42809U 17039G   25050.90864572 -.00000009  00000+0 -10340-4 0  9998
2 42809  86.4016 195.1619 0002217 100.7697 259.3748 14.34217591400823
IRIDIUM 124             
1 42810U 17039H   25050.71774166  .00000864  00000+0  25075-3 0  9995
2 42810  86.4520 132.0956 0002224  88.6149 271.5307 14.43286420405529
IRIDIUM 128             
1 42811U 17039J   25050.89938301  .00000257  00000+0  84718-4 0  9994
2 42811  86.3952 226.6477 0002290  84.9033 275.2424 14.34218740400852
IRIDIUM 121             
1 42812U 17039K   25050.92766983  .00000206  00000+0  66433-4 0  9992
2 42812  86.4017 195.1781 0002011  91.1537 268.9889 14.34218898400706
IRIDIUM 122             
1 42957U 17061C   25050.89303979  .00000056  00000+0  13039-4 0  9992
2 42957  86.3951 226.6850 0002350  95.2103 264.9361 14.34217922385653
IRIDIUM 129             
1 42958U 17061D   25050.91840971  .00000031  00000+0  38879-5 0  9997
2 42958  86.3951 226.7361 0001884 101.8361 258.3046 14.34217647385676
